[Satellite]
VERSION=1.1
NAME=STARLINK-1206
NICKNAME=STARLINK-1206
TLE1=1 45204U 20012AC  20078.25001157 -.00016177  00000-0 -17088-3 0  9999
TLE2=2 45204  53.0014 121.1643 0000918  77.4029   5.0298 15.62799674  5011
STATUS=0
